{
  "type": "FeatureCollection",
  "features": [
    {
      "type": "Feature",
      "properties": {
        "norad_id": 44231,
        "name": "BEIDOU-2 G8 (C01)",
        "group": "gnss",
        "lat": 1.3253016658412176,
        "lon": -159.86285105103846,
        "alt_km": 35809.33104347751,
        "timestamp": "2025-12-06T22:38:42.972237+00:00",
        "meta_object_name": "BEIDOU-2 G8 (C01)",
        "meta_object_id": "2019-027A",
        "meta_epoch": "2025-12-06T13:53:51.604800",
        "meta_mean_motion": 1.00269342,
        "meta_eccentricity": 0.00085365,
        "meta_inclination": 1.6457,
        "meta_ra_of_asc_node": 74.7153,
        "meta_arg_of_pericenter": 254.905,
        "meta_mean_anomaly": 99.018,
        "meta_ephemeris_type": 0,
        "meta_classification_type": "U",
        "meta_norad_cat_id": 44231,
        "meta_element_set_no": 999,
        "meta_rev_at_epoch": 2414,
        "meta_bstar": 0,
        "meta_mean_motion_dot": -2.41e-06,
        "meta_mean_motion_ddot": 0,
        "tle_line1": "1 44231U 19027A   25340.57906950 -.00000241  00000+0  00000+0 0  9994",
        "tle_line2": "2 44231   1.6457  74.7153 0008536 254.9050  99.0180  1.00269342 24148"
      },
      "geometry": {
        "type": "Point",
        "coordinates": [
          -159.86285105103846,
          1.3253016658412176
        ]
      }
    },
    {
      "type": "Feature",
      "properties": {
        "norad_id": 44299,
        "name": "COSMOS 2534 (758)",
        "group": "gnss",
        "lat": -60.97705839521225,
        "lon": 79.02871684272205,
        "alt_km": 19115.926113773963,
        "timestamp": "2025-12-06T22:38:42.972248+00:00",
        "meta_object_name": "COSMOS 2534 (758)",
        "meta_object_id": "2019-030A",
        "meta_epoch": "2025-12-05T09:38:44.490912",
        "meta_mean_motion": 2.13101983,
        "meta_eccentricity": 0.00090311,
        "meta_inclination": 64.3653,
        "meta_ra_of_asc_node": 199.1403,
        "meta_arg_of_pericenter": 283.6175,
        "meta_mean_anomaly": 229.7103,
        "meta_ephemeris_type": 0,
        "meta_classification_type": "U",
        "meta_norad_cat_id": 44299,
        "meta_element_set_no": 999,
        "meta_rev_at_epoch": 5079,
        "meta_bstar": 0,
        "meta_mean_motion_dot": 8.7e-07,
        "meta_mean_motion_ddot": 0,
        "tle_line1": "1 44299U 19030A   25339.40190383  .00000087  00000+0  00000+0 0  9994",
        "tle_line2": "2 44299  64.3653 199.1403 0009031 283.6175 229.7103  2.13101983 50792"
      },
      "geometry": {
        "type": "Point",
        "coordinates": [
          79.02871684272205,
          -60.97705839521225
        ]
      }
    },
    {
      "type": "Feature",
      "properties": {
        "norad_id": 44337,
        "name": "BEIDOU-3 IGSO-2 (C39)",
        "group": "gnss",
        "lat": 12.020927218440283,
        "lon": 169.065414333528,
        "alt_km": 35942.02047316103,
        "timestamp": "2025-12-06T22:38:42.972260+00:00",
        "meta_object_name": "BEIDOU-3 IGSO-2 (C39)",
        "meta_object_id": "2019-035A",
        "meta_epoch": "2025-12-01T05:17:49.661952",
        "meta_mean_motion": 1.00274502,
        "meta_eccentricity": 0.00376064,
        "meta_inclination": 55.2223,
        "meta_ra_of_asc_node": 160.6035,
        "meta_arg_of_pericenter": 202.2564,
        "meta_mean_anomaly": 266.4761,
        "meta_ephemeris_type": 0,
        "meta_classification_type": "U",
        "meta_norad_cat_id": 44337,
        "meta_element_set_no": 999,
        "meta_rev_at_epoch": 2368,
        "meta_bstar": 0,
        "meta_mean_motion_dot": -2.5e-07,
        "meta_mean_motion_ddot": 0,
        "tle_line1": "1 44337U 19035A   25335.22071368 -.00000025  00000+0  00000+0 0  9992",
        "tle_line2": "2 44337  55.2223 160.6035 0037606 202.2564 266.4761  1.00274502 23688"
      },
      "geometry": {
        "type": "Point",
        "coordinates": [
          169.065414333528,
          12.020927218440283
        ]
      }
    },
    {
      "type": "Feature",
      "properties": {
        "norad_id": 44506,
        "name": "GPS BIII-2  (PRN 18)",
        "group": "gnss",
        "lat": 4.138505604732105,
        "lon": 155.94818231834293,
        "alt_km": 20041.27455498053,
        "timestamp": "2025-12-06T22:38:42.972272+00:00",
        "meta_object_name": "GPS BIII-2  (PRN 18)",
        "meta_object_id": "2019-056A",
        "meta_epoch": "2025-12-06T10:33:28.812384",
        "meta_mean_motion": 2.00565693,
        "meta_eccentricity": 0.00577848,
        "meta_inclination": 55.7237,
        "meta_ra_of_asc_node": 338.8025,
        "meta_arg_of_pericenter": 198.47,
        "meta_mean_anomaly": 333.0886,
        "meta_ephemeris_type": 0,
        "meta_classification_type": "U",
        "meta_norad_cat_id": 44506,
        "meta_element_set_no": 999,
        "meta_rev_at_epoch": 4620,
        "meta_bstar": 0,
        "meta_mean_motion_dot": -8e-07,
        "meta_mean_motion_ddot": 0,
        "tle_line1": "1 44506U 19056A   25340.43991681 -.00000080  00000+0  00000+0 0  9992",
        "tle_line2": "2 44506  55.7237 338.8025 0057784 198.4700 333.0886  2.00565693 46208"
      },
      "geometry": {
        "type": "Point",
        "coordinates": [
          155.94818231834293,
          4.138505604732105
        ]
      }
    },
    {
      "type": "Feature",
      "properties": {
        "norad_id": 44542,
        "name": "BEIDOU-3 M24 (C46)",
        "group": "gnss",
        "lat": -36.00549720012838,
        "lon": 157.83740199040773,
        "alt_km": 21523.652750810466,
        "timestamp": "2025-12-06T22:38:42.972286+00:00",
        "meta_object_name": "BEIDOU-3 M24 (C46)",
        "meta_object_id": "2019-061A",
        "meta_epoch": "2025-12-04T20:45:16.055424",
        "meta_mean_motion": 1.86229249,
        "meta_eccentricity": 0.00095755,
        "meta_inclination": 54.4001,
        "meta_ra_of_asc_node": 189.282,
        "meta_arg_of_pericenter": 24.0464,
        "meta_mean_anomaly": 336.0883,
        "meta_ephemeris_type": 0,
        "meta_classification_type": "U",
        "meta_norad_cat_id": 44542,
        "meta_element_set_no": 999,
        "meta_rev_at_epoch": 4217,
        "meta_bstar": 0,
        "meta_mean_motion_dot": 9.8e-07,
        "meta_mean_motion_ddot": 0,
        "tle_line1": "1 44542U 19061A   25338.86476916  .00000098  00000+0  00000+0 0  9999",
        "tle_line2": "2 44542  54.4001 189.2820 0009575  24.0464 336.0883  1.86229249 42179"
      },
      "geometry": {
        "type": "Point",
        "coordinates": [
          157.83740199040773,
          -36.00549720012838
        ]
      }
    },
    {
      "type": "Feature",
      "properties": {
        "norad_id": 44543,
        "name": "BEIDOU-3 M23 (C45)",
        "group": "gnss",
        "lat": -36.189910447966874,
        "lon": 40.810335276429875,
        "alt_km": 21548.511894309944,
        "timestamp": "2025-12-06T22:38:42.972299+00:00",
        "meta_object_name": "BEIDOU-3 M23 (C45)",
        "meta_object_id": "2019-061B",
        "meta_epoch": "2025-12-04T17:20:06.370944",
        "meta_mean_motion": 1.86227466,
        "meta_eccentricity": 0.0006129,
        "meta_inclination": 54.3989,
        "meta_ra_of_asc_node": 189.2553,
        "meta_arg_of_pericenter": 23.0087,
        "meta_mean_anomaly": 154.4182,
        "meta_ephemeris_type": 0,
        "meta_classification_type": "U",
        "meta_norad_cat_id": 44543,
        "meta_element_set_no": 999,
        "meta_rev_at_epoch": 4217,
        "meta_bstar": 0,
        "meta_mean_motion_dot": 1e-06,
        "meta_mean_motion_ddot": 0,
        "tle_line1": "1 44543U 19061B   25338.72229596  .00000100  00000+0  00000+0 0  9999",
        "tle_line2": "2 44543  54.3989 189.2553 0006129  23.0087 154.4182  1.86227466 42172"
      },
      "geometry": {
        "type": "Point",
        "coordinates": [
          40.810335276429875,
          -36.189910447966874
        ]
      }
    },
    {
      "type": "Feature",
      "properties": {
        "norad_id": 44624,
        "name": "EUTELSAT 5 WEST B (EGNOS/PRN 121)",
        "group": "gnss",
        "lat": 0.08914470633951065,
        "lon": 50.663737447600845,
        "alt_km": 35800.17825173316,
        "timestamp": "2025-12-06T22:38:42.972310+00:00",
        "meta_object_name": "EUTELSAT 5 WEST B (EGNOS/PRN 121)",
        "meta_object_id": "2019-067A",
        "meta_epoch": "2025-12-06T08:30:19.232064",
        "meta_mean_motion": 1.00270407,
        "meta_eccentricity": 0.00035896,
        "meta_inclination": 0.0672,
        "meta_ra_of_asc_node": 334.8834,
        "meta_arg_of_pericenter": 281.2094,
        "meta_mean_anomaly": 301.8866,
        "meta_ephemeris_type": 0,
        "meta_classification_type": "U",
        "meta_norad_cat_id": 44624,
        "meta_element_set_no": 999,
        "meta_rev_at_epoch": 2250,
        "meta_bstar": 0,
        "meta_mean_motion_dot": -3.5e-07,
        "meta_mean_motion_ddot": 0,
        "tle_line1": "1 44624U 19067A   25340.35438926 -.00000035  00000+0  00000+0 0  9994",
        "tle_line2": "2 44624   0.0672 334.8834 0003589 281.2094 301.8866  1.00270407 22503"
      },
      "geometry": {
        "type": "Point",
        "coordinates": [
          50.663737447600845,
          0.08914470633951065
        ]
      }
    }
  ]
}